[{"OBJECT_NAME":"HAWK-7C","OBJECT_ID":"2023-054Y","EPOCH":"2026-03-09T16:32:02.440032","MEAN_MOTION":15.26207266,"ECCENTRICITY":0.00036507,"INCLINATION":97.2829,"RA_OF_ASC_NODE":317.5849,"ARG_OF_PERICENTER":52.209,"MEAN_ANOMALY":307.9479,"EPHEMERIS_TYPE":0,"CLASSIFICATION_TYPE":"U","NORAD_CAT_ID":56200,"ELEMENT_SET_NO":999,"REV_AT_EPOCH":16184,"BSTAR":0.0003098019,"MEAN_MOTION_DOT":7.947e-5,"MEAN_MOTION_DDOT":0},{"OBJECT_NAME":"STARLINK-31409","OBJECT_ID":"2024-056D","EPOCH":"2026-03-09T11:46:43.082688","MEAN_MOTION":15.27577397,"ECCENTRICITY":0.00010271,"INCLINATION":43.0002,"RA_OF_ASC_NODE":224.9352,"ARG_OF_PERICENTER":252.2132,"MEAN_ANOMALY":107.8607,"EPHEMERIS_TYPE":0,"CLASSIFICATION_TYPE":"U","NORAD_CAT_ID":59299,"ELEMENT_SET_NO":999,"REV_AT_EPOCH":11132,"BSTAR":2.5139573e-5,"MEAN_MOTION_DOT":4.3e-6,"MEAN_MOTION_DDOT":0}]
