HAWK-7C                 
1 56200U 23054Y   26068.68891713  .00007947  00000+0  30980-3 0  9991
2 56200  97.2829 317.5849 0003651  52.2090 307.9479 15.26207266161848
STARLINK-31409          
1 59299U 24056D   26068.49077642  .00000430  00000+0  25140-4 0  9994
2 59299  43.0002 224.9352 0001027 252.2132 107.8607 15.27577397111329
